LEMUR-2-ALISIA          
1 62706U 25009DB  26068.73770453  .00009177  00000+0  72005-3 0  9995
2 62706  97.7037 151.6973 0006582 159.9869 200.1615 15.01147598 85230
STARLINK-34370          
1 64309U 25123U   26068.72965821  .00007563  00000+0  64090-3 0  9999
2 64309  70.0016 194.3836 0003733 273.6723  86.4009 14.98334393 41625
